CCSDS_OMM_VERS = 2.0
CREATION_DATE  = 
ORIGINATOR     = 

OBJECT_NAME    = STARLINK-37026
OBJECT_ID      = 2026-042G
CENTER_NAME    = EARTH
REF_FRAME      = TEME
TIME_SYSTEM    = UTC
MEAN_ELEMENT_THEORY = SGP/SGP4

EPOCH          = 2026-03-09T18:00:02.000160
MEAN_MOTION    = 16.01566189
ECCENTRICITY   = .00007284
INCLINATION    = 53.1607
RA_OF_ASC_NODE = 195.0039
ARG_OF_PERICENTER = 62.6921
MEAN_ANOMALY   = 348.2455

EPHEMERIS_TYPE = 0
CLASSIFICATION_TYPE = U
NORAD_CAT_ID   = 68075
ELEMENT_SET_NO = 999
REV_AT_EPOCH   = 206
BSTAR          = -.22158337E-2
MEAN_MOTION_DOT = -.1272121E-1
MEAN_MOTION_DDOT = .52296688E-3

CCSDS_OMM_VERS = 2.0
CREATION_DATE  = 
ORIGINATOR     = 

OBJECT_NAME    = STARLINK-37023
OBJECT_ID      = 2026-042H
CENTER_NAME    = EARTH
REF_FRAME      = TEME
TIME_SYSTEM    = UTC
MEAN_ELEMENT_THEORY = SGP/SGP4

EPOCH          = 2026-03-09T18:00:02.000160
MEAN_MOTION    = 16.01692555
ECCENTRICITY   = .00007461
INCLINATION    = 53.1606
RA_OF_ASC_NODE = 195.0011
ARG_OF_PERICENTER = 60.5612
MEAN_ANOMALY   = 351.7392

EPHEMERIS_TYPE = 0
CLASSIFICATION_TYPE = U
NORAD_CAT_ID   = 68076
ELEMENT_SET_NO = 999
REV_AT_EPOCH   = 206
BSTAR          = -.2208137E-2
MEAN_MOTION_DOT = -.1277035E-1
MEAN_MOTION_DDOT = .52738937E-3

CCSDS_OMM_VERS = 2.0
CREATION_DATE  = 
ORIGINATOR     = 

OBJECT_NAME    = STARLINK-37036
OBJECT_ID      = 2026-042J
CENTER_NAME    = EARTH
REF_FRAME      = TEME
TIME_SYSTEM    = UTC
MEAN_ELEMENT_THEORY = SGP/SGP4

EPOCH          = 2026-03-09T18:00:02.000160
MEAN_MOTION    = 16.01800796
ECCENTRICITY   = .00009461
INCLINATION    = 53.1609
RA_OF_ASC_NODE = 194.9987
ARG_OF_PERICENTER = 57.3582
MEAN_ANOMALY   = 356.1358

EPHEMERIS_TYPE = 0
CLASSIFICATION_TYPE = U
NORAD_CAT_ID   = 68077
ELEMENT_SET_NO = 999
REV_AT_EPOCH   = 206
BSTAR          = -.21950083E-2
MEAN_MOTION_DOT = -.1277528E-1
MEAN_MOTION_DDOT = .52839313E-3

CCSDS_OMM_VERS = 2.0
CREATION_DATE  = 
ORIGINATOR     = 

OBJECT_NAME    = STARLINK-36973
OBJECT_ID      = 2026-042K
CENTER_NAME    = EARTH
REF_FRAME      = TEME
TIME_SYSTEM    = UTC
MEAN_ELEMENT_THEORY = SGP/SGP4

EPOCH          = 2026-03-09T18:00:02.000160
MEAN_MOTION    = 16.02042577
ECCENTRICITY   = .00008118
INCLINATION    = 53.1609
RA_OF_ASC_NODE = 194.9932
ARG_OF_PERICENTER = 58.8941
MEAN_ANOMALY   = 357.1960

EPHEMERIS_TYPE = 0
CLASSIFICATION_TYPE = U
NORAD_CAT_ID   = 68078
ELEMENT_SET_NO = 999
REV_AT_EPOCH   = 206
BSTAR          = -.21823234E-2
MEAN_MOTION_DOT = -.1288128E-1
MEAN_MOTION_DDOT = .53785284E-3

CCSDS_OMM_VERS = 2.0
CREATION_DATE  = 
ORIGINATOR     = 

OBJECT_NAME    = STARLINK-37063
OBJECT_ID      = 2026-042L
CENTER_NAME    = EARTH
REF_FRAME      = TEME
TIME_SYSTEM    = UTC
MEAN_ELEMENT_THEORY = SGP/SGP4

EPOCH          = 2026-03-09T18:00:02.000160
MEAN_MOTION    = 16.01906868
ECCENTRICITY   = .00008243
INCLINATION    = 53.1604
RA_OF_ASC_NODE = 194.9963
ARG_OF_PERICENTER = 58.7859
MEAN_ANOMALY   = 355.8653

EPHEMERIS_TYPE = 0
CLASSIFICATION_TYPE = U
NORAD_CAT_ID   = 68079
ELEMENT_SET_NO = 999
REV_AT_EPOCH   = 206
BSTAR          = -.21871513E-2
MEAN_MOTION_DOT = -.1280833E-1
MEAN_MOTION_DDOT = .53151158E-3

CCSDS_OMM_VERS = 2.0
CREATION_DATE  = 
ORIGINATOR     = 

OBJECT_NAME    = STARLINK-37051
OBJECT_ID      = 2026-042M
CENTER_NAME    = EARTH
REF_FRAME      = TEME
TIME_SYSTEM    = UTC
MEAN_ELEMENT_THEORY = SGP/SGP4

EPOCH          = 2026-03-09T18:00:02.000160
MEAN_MOTION    = 16.02275484
ECCENTRICITY   = .00007538
INCLINATION    = 53.1606
RA_OF_ASC_NODE = 194.9878
ARG_OF_PERICENTER = 55.2528
MEAN_ANOMALY   = 3.4787

EPHEMERIS_TYPE = 0
CLASSIFICATION_TYPE = U
NORAD_CAT_ID   = 68080
ELEMENT_SET_NO = 999
REV_AT_EPOCH   = 206
BSTAR          = -.21351219E-2
MEAN_MOTION_DOT = -.1277781E-1
MEAN_MOTION_DDOT = .53138172E-3

CCSDS_OMM_VERS = 2.0
CREATION_DATE  = 
ORIGINATOR     = 

OBJECT_NAME    = STARLINK-37066
OBJECT_ID      = 2026-042N
CENTER_NAME    = EARTH
REF_FRAME      = TEME
TIME_SYSTEM    = UTC
MEAN_ELEMENT_THEORY = SGP/SGP4

EPOCH          = 2026-03-09T18:00:02.000160
MEAN_MOTION    = 16.02166444
ECCENTRICITY   = .00008994
INCLINATION    = 53.1609
RA_OF_ASC_NODE = 194.9903
ARG_OF_PERICENTER = 59.5542
MEAN_ANOMALY   = 357.9219

EPHEMERIS_TYPE = 0
CLASSIFICATION_TYPE = U
NORAD_CAT_ID   = 68081
ELEMENT_SET_NO = 999
REV_AT_EPOCH   = 206
BSTAR          = -.21650434E-2
MEAN_MOTION_DOT = -.1287291E-1
MEAN_MOTION_DDOT = .5379576E-3

CCSDS_OMM_VERS = 2.0
CREATION_DATE  = 
ORIGINATOR     = 

OBJECT_NAME    = STARLINK-37054
OBJECT_ID      = 2026-042P
CENTER_NAME    = EARTH
REF_FRAME      = TEME
TIME_SYSTEM    = UTC
MEAN_ELEMENT_THEORY = SGP/SGP4

EPOCH          = 2026-03-09T18:00:02.000160
MEAN_MOTION    = 16.02375091
ECCENTRICITY   = .00008344
INCLINATION    = 53.1606
RA_OF_ASC_NODE = 194.9855
ARG_OF_PERICENTER = 59.6406
MEAN_ANOMALY   = 0.2071

EPHEMERIS_TYPE = 0
CLASSIFICATION_TYPE = U
NORAD_CAT_ID   = 68082
ELEMENT_SET_NO = 999
REV_AT_EPOCH   = 206
BSTAR          = -.21202278E-2
MEAN_MOTION_DOT = -.127637E-1
MEAN_MOTION_DDOT = .5309033E-3

CCSDS_OMM_VERS = 2.0
CREATION_DATE  = 
ORIGINATOR     = 

OBJECT_NAME    = STARLINK-37065
OBJECT_ID      = 2026-042Q
CENTER_NAME    = EARTH
REF_FRAME      = TEME
TIME_SYSTEM    = UTC
MEAN_ELEMENT_THEORY = SGP/SGP4

EPOCH          = 2026-03-09T18:00:02.000160
MEAN_MOTION    = 16.02488132
ECCENTRICITY   = .00008277
INCLINATION    = 53.1607
RA_OF_ASC_NODE = 194.9828
ARG_OF_PERICENTER = 57.7286
MEAN_ANOMALY   = 3.3909

EPHEMERIS_TYPE = 0
CLASSIFICATION_TYPE = U
NORAD_CAT_ID   = 68083
ELEMENT_SET_NO = 999
REV_AT_EPOCH   = 206
BSTAR          = -.2106636E-2
MEAN_MOTION_DOT = -.1276676E-1
MEAN_MOTION_DDOT = .53180709E-3

CCSDS_OMM_VERS = 2.0
CREATION_DATE  = 
ORIGINATOR     = 

OBJECT_NAME    = STARLINK-37037
OBJECT_ID      = 2026-042R
CENTER_NAME    = EARTH
REF_FRAME      = TEME
TIME_SYSTEM    = UTC
MEAN_ELEMENT_THEORY = SGP/SGP4

EPOCH          = 2026-03-09T18:00:02.000160
MEAN_MOTION    = 16.02612364
ECCENTRICITY   = .00008392
INCLINATION    = 53.1604
RA_OF_ASC_NODE = 194.9801
ARG_OF_PERICENTER = 52.9907
MEAN_ANOMALY   = 9.4935

EPHEMERIS_TYPE = 0
CLASSIFICATION_TYPE = U
NORAD_CAT_ID   = 68084
ELEMENT_SET_NO = 999
REV_AT_EPOCH   = 206
BSTAR          = -.20913136E-2
MEAN_MOTION_DOT = -.1276737E-1
MEAN_MOTION_DDOT = .53259454E-3

CCSDS_OMM_VERS = 2.0
CREATION_DATE  = 
ORIGINATOR     = 

OBJECT_NAME    = STARLINK-37068
OBJECT_ID      = 2026-042S
CENTER_NAME    = EARTH
REF_FRAME      = TEME
TIME_SYSTEM    = UTC
MEAN_ELEMENT_THEORY = SGP/SGP4

EPOCH          = 2026-03-09T18:00:02.000160
MEAN_MOTION    = 16.02695400
ECCENTRICITY   = .00008235
INCLINATION    = 53.1604
RA_OF_ASC_NODE = 194.9782
ARG_OF_PERICENTER = 63.4310
MEAN_ANOMALY   = 0.0093

EPHEMERIS_TYPE = 0
CLASSIFICATION_TYPE = U
NORAD_CAT_ID   = 68085
ELEMENT_SET_NO = 999
REV_AT_EPOCH   = 206
BSTAR          = -.20765481E-2
MEAN_MOTION_DOT = -.1274006E-1
MEAN_MOTION_DDOT = .53101479E-3

CCSDS_OMM_VERS = 2.0
CREATION_DATE  = 
ORIGINATOR     = 

OBJECT_NAME    = STARLINK-37067
OBJECT_ID      = 2026-042T
CENTER_NAME    = EARTH
REF_FRAME      = TEME
TIME_SYSTEM    = UTC
MEAN_ELEMENT_THEORY = SGP/SGP4

EPOCH          = 2026-03-09T18:00:02.000160
MEAN_MOTION    = 16.02834170
ECCENTRICITY   = .00008328
INCLINATION    = 53.1606
RA_OF_ASC_NODE = 194.9752
ARG_OF_PERICENTER = 59.1903
MEAN_ANOMALY   = 5.7355

EPHEMERIS_TYPE = 0
CLASSIFICATION_TYPE = U
NORAD_CAT_ID   = 68086
ELEMENT_SET_NO = 999
REV_AT_EPOCH   = 206
BSTAR          = -.20696651E-2
MEAN_MOTION_DOT = -.1280197E-1
MEAN_MOTION_DDOT = .53656391E-3

CCSDS_OMM_VERS = 2.0
CREATION_DATE  = 
ORIGINATOR     = 

OBJECT_NAME    = STARLINK-37062
OBJECT_ID      = 2026-042U
CENTER_NAME    = EARTH
REF_FRAME      = TEME
TIME_SYSTEM    = UTC
MEAN_ELEMENT_THEORY = SGP/SGP4

EPOCH          = 2026-03-09T18:00:02.000160
MEAN_MOTION    = 16.02948582
ECCENTRICITY   = .00007507
INCLINATION    = 53.1605
RA_OF_ASC_NODE = 194.9724
ARG_OF_PERICENTER = 60.9678
MEAN_ANOMALY   = 5.2255

EPHEMERIS_TYPE = 0
CLASSIFICATION_TYPE = U
NORAD_CAT_ID   = 68087
ELEMENT_SET_NO = 999
REV_AT_EPOCH   = 206
BSTAR          = -.20606673E-2
MEAN_MOTION_DOT = -.1283275E-1
MEAN_MOTION_DDOT = .53961243E-3

CCSDS_OMM_VERS = 2.0
CREATION_DATE  = 
ORIGINATOR     = 

OBJECT_NAME    = STARLINK-37059
OBJECT_ID      = 2026-042V
CENTER_NAME    = EARTH
REF_FRAME      = TEME
TIME_SYSTEM    = UTC
MEAN_ELEMENT_THEORY = SGP/SGP4

EPOCH          = 2026-03-09T18:00:02.000160
MEAN_MOTION    = 16.03078478
ECCENTRICITY   = .00007666
INCLINATION    = 53.1604
RA_OF_ASC_NODE = 194.9696
ARG_OF_PERICENTER = 53.9682
MEAN_ANOMALY   = 13.6421

EPHEMERIS_TYPE = 0
CLASSIFICATION_TYPE = U
NORAD_CAT_ID   = 68088
ELEMENT_SET_NO = 999
REV_AT_EPOCH   = 206
BSTAR          = -.20522071E-2
MEAN_MOTION_DOT = -.1287865E-1
MEAN_MOTION_DDOT = .54393363E-3

CCSDS_OMM_VERS = 2.0
CREATION_DATE  = 
ORIGINATOR     = 

OBJECT_NAME    = STARLINK-37004
OBJECT_ID      = 2026-042W
CENTER_NAME    = EARTH
REF_FRAME      = TEME
TIME_SYSTEM    = UTC
MEAN_ELEMENT_THEORY = SGP/SGP4

EPOCH          = 2026-03-09T18:00:02.000160
MEAN_MOTION    = 16.03187764
ECCENTRICITY   = .00008908
INCLINATION    = 53.1606
RA_OF_ASC_NODE = 194.9672
ARG_OF_PERICENTER = 57.4414
MEAN_ANOMALY   = 11.3936

EPHEMERIS_TYPE = 0
CLASSIFICATION_TYPE = U
NORAD_CAT_ID   = 68089
ELEMENT_SET_NO = 999
REV_AT_EPOCH   = 206
BSTAR          = -.20303819E-2
MEAN_MOTION_DOT = -.1282581E-1
MEAN_MOTION_DDOT = .54053922E-3

